STARLINK-1961
1 17562C 21009Q   21326.12846765  .00009275  00000-0  62135-3 0  3266
2 17562  53.0537 223.1695 0001847  66.3269  85.5541 15.06392862    10
